O3B MPOWER F1           
1 54755U 22174A   24149.28069022 -.00000013  00000+0  00000+0 0  9994
2 54755   0.0632 357.8419 0006832  71.9224 161.0012  5.00114394 27849
